O3B FM10                
1 40348U 14083A   26061.61762808 -.00000029  00000+0  00000+0 0  9998
2 40348   0.0434 347.0671 0002688 352.6649  20.2500  5.00115198204565
O3B FM11                
1 40349U 14083B   26061.63035217 -.00000029  00000+0  00000+0 0  9998
2 40349   0.0565   0.5014 0003144 329.7416  29.7318  5.00115559204571
O3B FM12                
1 40350U 14083C   26061.45755868 -.00000029  00000+0  00000+0 0  9991
2 40350   0.0560 359.8037 0002644 336.7536  23.4233  5.00115928204586
O3B FM9                 
1 40351U 14083D   26061.48438743 -.00000029  00000+0  00000+0 0  9995
2 40351   0.0577   0.8861 0002738 339.0567  20.0390  5.00115883204731
ASTRA 2G                
1 40364U 14089A   26061.73635463  .00000000  00000+0  00000+0 0  9999
2 40364   0.0222   5.7242 0004279  20.2889  67.7809  1.00269793 40903
SES-9                   
1 41380U 16013A   26061.63144181 -.00000362  00000+0  00000+0 0  9990
2 41380   0.0396 298.9787 0001439  91.8068 105.2189  1.00271455 36375
SES-10                  
1 42432U 17017A   26061.57485928 -.00000290  00000+0  00000+0 0  9994
2 42432   0.0179  73.7682 0002527 270.4200 316.2019  1.00271121 32684
SES-15                  
1 42709U 17026A   26061.70515447  .00000043  00000+0  00000+0 0  9991
2 42709   0.0247 275.7633 0000708  61.0250 308.3599  1.00271134  6360
SES-11 (ECHOSTAR 105)   
1 42967U 17063A   26061.63864626 -.00000106  00000+0  00000+0 0  9997
2 42967   0.0322  69.6680 0002941 266.2610 309.4405  1.00271979 30656
SES-14                  
1 43175U 18012B   26061.72136123 -.00000295  00000+0  00000+0 0  9997
2 43175   0.0152  74.0832 0001085 260.4461  38.1452  1.00270870  5958
O3B FM15                
1 43231U 18024A   26061.15137011 -.00000029  00000+0  00000+0 0  9992
2 43231   0.0483   0.6162 0002685 337.4441  21.9208  5.00115540145678
O3B FM16                
1 43232U 18024B   26059.80451050 -.00000028  00000+0  00000+0 0  9993
2 43232   0.0446   2.3185 0002785 333.1821  24.4786  5.00115846145520
O3B FM14                
1 43233U 18024C   26061.64427760 -.00000029  00000+0  00000+0 0  9991
2 43233   0.0433   1.2947 0002846 340.5543  18.1335  5.00115628145610
O3B FM13                
1 43234U 18024D   26061.71013027 -.00000029  00000+0  00000+0 0  9997
2 43234   0.0478 329.8800 0004321 333.3966  56.6746  5.00115574145721
SES-12                  
1 43488U 18049A   26061.85151884  .00000000  00000+0  00000+0 0  9992
2 43488   0.0205 117.7090 0002165 182.3965 262.0820  1.00268084 28356
O3B FM20                
1 44112U 19020A   26061.67029823 -.00000029  00000+0  00000+0 0  9996
2 44112   0.0516 359.6530 0002818 330.0771  30.2463  5.00115461126243
O3B FM19                
1 44113U 19020B   26058.89895873 -.00000027  00000+0  00000+0 0  9991
2 44113   0.0602 347.5601 0004795 353.9797  18.4356  5.00116325125971
